SL-14 R/B               
1 21423U 91042B   26025.13551414  .00000696  00000+0  85020-4 0  9996
2 21423  82.4914 261.0338 0017807  28.7909 331.4283 14.81786892846627
ERS-1                   
1 21574U 91050A   26025.04397600  .00000673  00000+0  22994-3 0  9992
2 21574  98.7897  42.1816 0031460 333.5595  26.3985 14.39408962809453
ARIANE 40 R/B           
1 21610U 91050F   26025.12931771  .00000672  00000+0  21385-3 0  9997
2 21610  98.2102  78.9815 0002934 183.6213 176.4957 14.42857667812712
INTERCOSMOS 25          
1 21819U 91086A   26025.14632282  .00001920  00000+0  37891-3 0  9990
2 21819  82.6091 336.3220 1486181 210.7654 139.7495 12.11878276491412
SL-8 R/B                
1 21876U 92008B   26024.79197141  .00000114  00000+0  10149-3 0  9999
2 21876  82.9287 300.4302 0033318 257.1181 120.6987 13.75968111703383
SL-8 R/B                
1 21938U 92020B   26024.46518311  .00000201  00000+0  19246-3 0  9996
2 21938  82.9305 186.5892 0030072  62.5873 351.2212 13.75541198695059
USA 81                  
1 21949U 92023A   26025.06732566  .00000412  00000+0  14531-3 0  9994
2 21949  85.0112 156.5913 0002158 114.1723 245.9696 14.32349027 88540
COSMOS 2219             
1 22219U 92076A   26024.52162114 -.00000130  00000+0 -43165-4 0  9994
2 22219  71.0613 110.4049 0020820 268.3437  91.5300 14.14081059712135
SL-16 R/B               
1 22220U 92076B   26025.14591748 -.00000114  00000+0 -32924-4 0  9997
2 22220  70.9997 280.0993 0012368 171.8916 297.6725 14.16850431715661
COSMOS 2221             
1 22236U 92080A   26024.56221676  .00004033  00000+0  35685-3 0  9992
2 22236  82.5065 321.3352 0014230 348.3171  11.7718 14.95992217774191
SL-16 R/B               
1 22285U 92093B   26024.64124419  .00000096  00000+0  73729-4 0  9993
2 22285  71.0222  96.7390 0004431 342.0908  18.0058 14.15443223706922
COSMOS 2228             
1 22286U 92094A   26025.14212323  .00003282  00000+0  28217-3 0  9994
2 22286  82.5176 279.0060 0019648  88.2334 272.1138 14.96978172769540
